NORAD_CAT_ID,OBJECT_NAME,OBJECT_TYPE,EPOCH,MEAN_MOTION,ECCENTRICITY,INCLINATION,RA_OF_ASC_NODE,ARG_OF_PERICENTER,MEAN_ANOMALY,BSTAR,MEAN_MOTION_DOT,MEAN_MOTION_DDOT,TLE_LINE0,TLE_LINE1,TLE_LINE2,SEMIMAJOR_AXIS,PERIOD,APOGEE,PERIGEE,DECAYED
52876.0,STARLINK-4200,PAYLOAD,2024-03-27 21:03:15,15.08833084,0.0001657,53.2184,329.5706,98.0022,262.1158,0.00037771,5.727e-05,0.0,0 STARLINK-4200,1 52876U 22062AY  24087.87726740  .00005727  00000-0  37771-3 0  9991,2 52876  53.2184 329.5706 0001657  98.0022 262.1158 15.08833084 99097,6917.902,95.438,540.913,538.62,0.0
52876.0,STARLINK-4200,PAYLOAD,2024-03-27 22:38:39,15.08834119,0.0001528,53.2176,329.2732,95.9308,264.1858,0.00038465,5.838e-05,0.0,0 STARLINK-4200,1 52876U 22062AY  24087.94350706  .00005838  00000-0  38465-3 0  9998,2 52876  53.2176 329.2732 0001528  95.9308 264.1858 15.08834119 98610,6917.898,95.438,540.82,538.706,0.0
52876.0,STARLINK-4200,PAYLOAD,2024-03-28 16:07:54,15.08813243,0.0001807,53.2176,326.0029,102.0844,258.0351,0.00069581,0.00010795,0.0,0 STARLINK-4200,1 52876U 22062AY  24088.67215465  .00010795  00000-0  69581-3 0  9992,2 52876  53.2176 326.0029 0001807 102.0844 258.0351 15.08813243 99211,6917.962,95.439,541.077,538.577,0.0
52876.0,STARLINK-4200,PAYLOAD,2024-03-28 22:29:26,15.08826524,0.0001174,53.2187,324.8092,118.3559,241.7552,0.00033196,4.997e-05,0.0,0 STARLINK-4200,1 52876U 22062AY  24088.93711227  .00004997  00000-0  33196-3 0  9998,2 52876  53.2187 324.8092 0001174 118.3559 241.7552 15.08826524 98766,6917.922,95.438,540.599,538.974,0.0
52876.0,STARLINK-4200,PAYLOAD,2024-03-29 01:40:12,15.08836541,0.0001432,53.2188,324.2147,119.9137,240.1997,0.00011829,1.595e-05,0.0,0 STARLINK-4200,1 52876U 22062AY  24089.06959001  .00001595  00000-0  11829-3 0  9997,2 52876  53.2188 324.2147 0001432 119.9137 240.1997 15.08836541 99271,6917.891,95.438,540.747,538.765,0.0
52876.0,STARLINK-4200,PAYLOAD,2024-03-29 15:58:40,15.08847024,0.0001257,53.2184,321.5393,93.5094,266.6042,-2.0447e-05,-6.13e-06,0.0,0 STARLINK-4200,1 52876U 22062AY  24089.66574401 -.00000613  00000-0 -20447-4 0  9999,2 52876  53.2184 321.5393 0001257  93.5094 266.6042 15.08847024 99366,6917.859,95.437,540.593,538.854,0.0
52876.0,STARLINK-4200,PAYLOAD,2024-03-29 22:20:12,15.08846671,0.0001244,53.2179,320.3513,92.8014,267.312,-3.1719e-05,-7.93e-06,0.0,0 STARLINK-4200,1 52876U 22062AY  24089.93070343 -.00000793  00000-0 -31719-4 0  9998,2 52876  53.2179 320.3513 0001244  92.8014 267.3120 15.08846671 98913,6917.86,95.437,540.586,538.864,0.0
52876.0,STARLINK-4200,PAYLOAD,2024-03-30 07:52:30,15.08852949,0.0001284,53.2195,318.5681,88.7999,271.314,6.8407e-05,8.01e-06,0.0,0 STARLINK-4200,1 52876U 22062AY  24090.32813540  .00000801  00000-0  68407-4 0  9999,2 52876  53.2195 318.5681 0001284  88.7999 271.3140 15.08852949 99469,6917.841,95.437,540.594,538.818,0.0
52876.0,STARLINK-4200,PAYLOAD,2024-03-30 20:35:37,15.08829365,0.0001407,53.2184,316.1883,96.4748,263.6405,-1.0809e-05,-4.6e-06,0.0,0 STARLINK-4200,1 52876U 22062AY  24090.85807362 -.00000460  00000-0 -10809-4 0  9998,2 52876  53.2184 316.1883 0001407  96.4748 263.6405 15.08829365 99543,6917.913,95.438,540.751,538.805,0.0
52876.0,STARLINK-4200,PAYLOAD,2024-03-30 22:11:00,15.08830175,0.0001393,53.2191,315.8943,99.6136,260.5014,9.847e-06,-1.31e-06,0.0,0 STARLINK-4200,1 52876U 22062AY  24090.92431316 -.00000131  00000-0  98470-5 0  9993,2 52876  53.2191 315.8943 0001393  99.6136 260.5014 15.08830175 99064,6917.91,95.438,540.739,538.812,0.0
52876.0,STARLINK-4200,PAYLOAD,2024-03-31 20:26:23,15.08842538,0.0001496,53.2202,311.7313,96.6852,263.431,0.00012672,1.729e-05,0.0,0 STARLINK-4200,1 52876U 22062AY  24091.85166308  .00001729  00000-0  12672-3 0  9993,2 52876  53.2202 311.7313 0001496  96.6852 263.4310 15.08842538 99695,6917.873,95.437,540.773,538.703,0.0
52876.0,STARLINK-4200,PAYLOAD,2024-03-31 22:01:46,15.08844464,0.0001333,53.219,311.4329,91.9063,268.2081,0.00014542,2.027e-05,0.0,0 STARLINK-4200,1 52876U 22062AY  24091.91790156  .00002027  00000-0  14542-3 0  9994,2 52876  53.2190 311.4329 0001333  91.9063 268.2081 15.08844464 99213,6917.867,95.437,540.654,538.81,0.0
52876.0,STARLINK-4200,PAYLOAD,2024-04-01 13:55:38,15.08832491,0.0001758,53.2182,308.4587,92.4638,267.6555,0.00018929,2.725e-05,0.0,0 STARLINK-4200,1 52876U 22062AY  24092.58030944  .00002725  00000-0  18929-3 0  9998,2 52876  53.2182 308.4587 0001758  92.4638 267.6555 15.08832491 99802,6917.903,95.438,540.985,538.552,0.0
52876.0,STARLINK-4200,PAYLOAD,2024-04-01 23:27:56,15.08842103,0.0001445,53.2172,306.6736,92.8824,267.2334,7.0279e-05,8.31e-06,0.0,0 STARLINK-4200,1 52876U 22062AY  24092.97774245  .00000831  00000-0  70279-4 0  9993,2 52876  53.2172 306.6736 0001445  92.8824 267.2334 15.08842103 99869,6917.874,95.437,540.739,538.739,0.0
52876.0,STARLINK-4200,PAYLOAD,2024-04-02 07:24:52,15.08845961,0.0001394,53.2167,305.1856,89.8383,270.2769,0.00012661,1.728e-05,0.0,0 STARLINK-4200,1 52876U 22062AY  24093.30894064  .00001728  00000-0  12661-3 0  9999,2 52876  53.2167 305.1856 0001394  89.8383 270.2769 15.08845961 99422,6917.862,95.437,540.692,538.763,0.0
52876.0,STARLINK-4200,PAYLOAD,2024-04-02 20:07:58,15.08832536,0.0001158,53.217,302.8079,92.9289,267.1835,-8.2487e-05,-1.6e-05,0.0,0 STARLINK-4200,1 52876U 22062AY  24093.83886605 -.00001600  00000-0 -82487-4 0  9994,2 52876  53.2170 302.8079 0001158  92.9289 267.1835 15.08832536 99990,6917.903,95.438,540.569,538.967,0.0
52876.0,STARLINK-4200,PAYLOAD,2024-04-03 07:15:39,15.08841882,0.0001297,53.2162,300.7258,93.2684,266.8456,0.00014541,2.027e-05,0.0,0 STARLINK-4200,1 52876U 22062AY  24094.30254554  .00002027  00000-0  14541-3 0  9996,2 52876  53.2162 300.7258 0001297  93.2684 266.8456 15.08841882100064,6917.875,95.437,540.637,538.842,0.0
52876.0,STARLINK-4200,PAYLOAD,2024-04-03 19:58:45,15.08842291,0.0001358,53.2166,298.3469,95.824,264.2907,0.00032463,4.883e-05,0.0,0 STARLINK-4200,1 52876U 22062AY  24094.83246863  .00004883  00000-0  32463-3 0  9993,2 52876  53.2166 298.3469 0001358  95.8240 264.2907 15.08842291 99658,6917.873,95.437,540.678,538.799,0.0
52876.0,STARLINK-4200,PAYLOAD,2024-04-04 07:06:27,15.08849081,0.000136,53.2162,296.2655,93.4337,266.6811,0.00043403,6.628e-05,0.0,0 STARLINK-4200,1 52876U 22062AY  24095.29614638  .00006628  00000-0  43403-3 0  9998,2 52876  53.2162 296.2655 0001360  93.4337 266.6811 15.08849081 99724,6917.853,95.437,540.658,538.777,0.0
52876.0,STARLINK-4200,PAYLOAD,2024-04-04 19:49:32,15.08840648,0.000143,53.2175,293.8866,97.4819,262.6335,0.0001629,2.306e-05,0.0,0 STARLINK-4200,1 52876U 22062AY  24095.82606916  .00002306  00000-0  16290-3 0  9990,2 52876  53.2175 293.8866 0001430  97.4819 262.6335 15.08840648100294,6917.878,95.438,540.733,538.754,0.0
52876.0,STARLINK-4200,PAYLOAD,2024-04-05 13:18:46,15.08845264,0.00015,53.2181,290.6151,99.5942,260.5219,0.0001244,1.693e-05,0.0,0 STARLINK-4200,1 52876U 22062AY  24096.55470614  .00001693  00000-0  12440-3 0  9996,2 52876  53.2181 290.6151 0001500  99.5942 260.5219 15.08845264 99914,6917.864,95.437,540.767,538.692,0.0
52876.0,STARLINK-4200,PAYLOAD,2024-04-05 18:04:56,15.08843857,0.0001497,53.218,289.723,99.5319,260.5843,8.8767e-05,1.125e-05,0.0,0 STARLINK-4200,1 52876U 22062AY  24096.75342614  .00001125  00000-0  88767-4 0  9992,2 52876  53.2180 289.7230 0001497  99.5319 260.5843 15.08843857 99945,6917.869,95.437,540.769,538.698,0.0
52876.0,STARLINK-4200,PAYLOAD,2024-04-06 05:12:37,15.08848068,0.0001488,53.2182,287.6423,98.3716,261.7445,0.00011454,1.536e-05,0.0,0 STARLINK-4200,1 52876U 22062AY  24097.21710253  .00001536  00000-0  11454-3 0  9996,2 52876  53.2182 287.6423 0001488  98.3716 261.7445 15.08848068100501,6917.856,95.437,540.75,538.691,0.0
52876.0,STARLINK-4200,PAYLOAD,2024-04-06 11:34:10,15.08845397,0.0001705,53.2187,286.4561,102.7098,257.4085,6.3575e-05,7.24e-06,0.0,0 STARLINK-4200,1 52876U 22062AY  24097.48206343  .00000724  00000-0  63575-4 0  9995,2 52876  53.2187 286.4561 0001705 102.7098 257.4085 15.08845397100055,6917.864,95.437,540.908,538.549,0.0
52876.0,STARLINK-4200,PAYLOAD,2024-04-06 19:31:06,15.08835588,0.0001647,53.2177,284.9654,94.4234,265.6946,8.3033e-06,-1.56e-06,0.0,0 STARLINK-4200,1 52876U 22062AY  24097.81326980 -.00000156  00000-0  83033-5 0  9994,2 52876  53.2177 284.9654 0001647  94.4234 265.6946 15.08835588100591,6917.894,95.438,540.898,538.619,0.0
52876.0,STARLINK-4200,PAYLOAD,2024-04-07 11:24:57,15.08836936,0.0001623,53.2186,281.9922,97.1156,263.002,2.7848e-05,1.55e-06,0.0,0 STARLINK-4200,1 52876U 22062AY  24098.47567051  .00000155  00000-0  27848-4 0  9992,2 52876  53.2186 281.9922 0001623  97.1156 263.0020 15.08836936100204,6917.89,95.438,540.878,538.632,0.0
52876.0,STARLINK-4200,PAYLOAD,2024-04-07 19:21:53,15.08836723,0.0001762,53.2186,280.5056,106.3413,253.7773,6.9812e-05,8.23e-06,0.0,0 STARLINK-4200,1 52876U 22062AY  24098.80687155  .00000823  00000-0  69812-4 0  9996,2 52876  53.2186 280.5056 0001762 106.3413 253.7773 15.08836723100250,6917.89,95.438,540.974,538.536,0.0
52876.0,STARLINK-4200,PAYLOAD,2024-04-08 04:54:12,15.08836713,0.0001742,53.2189,278.7212,98.811,261.3079,0.00014778,2.064e-05,0.0,0 STARLINK-4200,1 52876U 22062AY  24099.20431331  .00002064  00000-0  14778-3 0  9993,2 52876  53.2189 278.7212 0001742  98.8110 261.3079 15.08836713100807,6917.89,95.438,540.961,538.55,0.0
52876.0,STARLINK-4200,PAYLOAD,2024-04-08 11:15:45,15.08838788,0.0001702,53.2198,277.532,90.6269,269.4918,0.00015955,2.252e-05,0.0,0 STARLINK-4200,1 52876U 22062AY  24099.46927292  .00002252  00000-0  15955-3 0  9994,2 52876  53.2198 277.5320 0001702  90.6269 269.4918 15.08838788100350,6917.884,95.438,540.927,538.572,0.0
52876.0,STARLINK-4200,PAYLOAD,2024-04-08 20:48:03,15.08842996,0.0001687,53.2195,275.7478,90.3062,269.8124,0.00017826,2.55e-05,0.0,0 STARLINK-4200,1 52876U 22062AY  24099.86671122  .00002550  00000-0  17826-3 0  9996,2 52876  53.2195 275.7478 0001687  90.3062 269.8124 15.08842996100417,6917.871,95.437,540.903,538.569,0.0
